{
  "type": "FeatureCollection",
  "features": [
    {
      "type": "Feature",
      "properties": {
        "norad_id": 32376,
        "name": "COSMO-SKYMED 2",
        "group": "resource",
        "lat": 14.632275731356865,
        "lon": 1.6276330506165104,
        "alt_km": 623.356559743278,
        "timestamp": "2025-12-24T09:46:30.652040+00:00",
        "meta_object_name": "COSMO-SKYMED 2",
        "meta_object_id": "2007-059A",
        "meta_epoch": "2025-12-24T04:10:19.174656",
        "meta_mean_motion": 14.82156104,
        "meta_eccentricity": 0.0001311,
        "meta_inclination": 97.8805,
        "meta_ra_of_asc_node": 179.3254,
        "meta_arg_of_pericenter": 82.3651,
        "meta_mean_anomaly": 277.7711,
        "meta_ephemeris_type": 0,
        "meta_classification_type": "U",
        "meta_norad_cat_id": 32376,
        "meta_element_set_no": 999,
        "meta_rev_at_epoch": 97607,
        "meta_bstar": 7.3667e-05,
        "meta_mean_motion_dot": 5.34e-06,
        "meta_mean_motion_ddot": 0,
        "tle_line1": "1 32376U 07059A   25358.17383304  .00000534  00000+0  73667-4 0  9998",
        "tle_line2": "2 32376  97.8805 179.3254 0001311  82.3651 277.7711 14.82156104976075"
      },
      "geometry": {
        "type": "Point",
        "coordinates": [
          1.6276330506165104,
          14.632275731356865
        ]
      }
    },
    {
      "type": "Feature",
      "properties": {
        "norad_id": 32382,
        "name": "RADARSAT-2",
        "group": "resource",
        "lat": 80.70474056114838,
        "lon": -64.44544862108324,
        "alt_km": 783.5297727012721,
        "timestamp": "2025-12-24T09:46:30.652051+00:00",
        "meta_object_name": "RADARSAT-2",
        "meta_object_id": "2007-061A",
        "meta_epoch": "2025-12-24T04:20:05.047008",
        "meta_mean_motion": 14.29985158,
        "meta_eccentricity": 0.0001134,
        "meta_inclination": 98.5793,
        "meta_ra_of_asc_node": 2.6042,
        "meta_arg_of_pericenter": 85.4136,
        "meta_mean_anomaly": 274.7176,
        "meta_ephemeris_type": 0,
        "meta_classification_type": "U",
        "meta_norad_cat_id": 32382,
        "meta_element_set_no": 999,
        "meta_rev_at_epoch": 94094,
        "meta_bstar": 8.5489e-05,
        "meta_mean_motion_dot": 1.77e-06,
        "meta_mean_motion_ddot": 0,
        "tle_line1": "1 32382U 07061A   25358.18061397  .00000177  00000+0  85489-4 0  9992",
        "tle_line2": "2 32382  98.5793   2.6042 0001134  85.4136 274.7176 14.29985158940943"
      },
      "geometry": {
        "type": "Point",
        "coordinates": [
          -64.44544862108324,
          80.70474056114838
        ]
      }
    },
    {
      "type": "Feature",
      "properties": {
        "norad_id": 32783,
        "name": "CARTOSAT-2A",
        "group": "resource",
        "lat": 9.651851087209685,
        "lon": -130.80028353890722,
        "alt_km": 641.3422631142448,
        "timestamp": "2025-12-24T09:46:30.652062+00:00",
        "meta_object_name": "CARTOSAT-2A",
        "meta_object_id": "2008-021A",
        "meta_epoch": "2025-12-24T04:08:11.350176",
        "meta_mean_motion": 14.78951469,
        "meta_eccentricity": 0.0011001,
        "meta_inclination": 97.7911,
        "meta_ra_of_asc_node": 47.6379,
        "meta_arg_of_pericenter": 326.5596,
        "meta_mean_anomaly": 33.492,
        "meta_ephemeris_type": 0,
        "meta_classification_type": "U",
        "meta_norad_cat_id": 32783,
        "meta_element_set_no": 999,
        "meta_rev_at_epoch": 95293,
        "meta_bstar": 0.0001135,
        "meta_mean_motion_dot": 7.88e-06,
        "meta_mean_motion_ddot": 0,
        "tle_line1": "1 32783U 08021A   25358.17235359  .00000788  00000+0  11350-3 0  9997",
        "tle_line2": "2 32783  97.7911  47.6379 0011001 326.5596  33.4920 14.78951469952937"
      },
      "geometry": {
        "type": "Point",
        "coordinates": [
          -130.80028353890722,
          9.651851087209685
        ]
      }
    },
    {
      "type": "Feature",
      "properties": {
        "norad_id": 33320,
        "name": "HUANJING 1A (HJ-1A)",
        "group": "resource",
        "lat": -42.24145071220806,
        "lon": 159.20383756046195,
        "alt_km": 634.6505607270456,
        "timestamp": "2025-12-24T09:46:30.652072+00:00",
        "meta_object_name": "HUANJING 1A (HJ-1A)",
        "meta_object_id": "2008-041A",
        "meta_epoch": "2025-12-24T05:32:10.214592",
        "meta_mean_motion": 14.83428451,
        "meta_eccentricity": 0.0019302,
        "meta_inclination": 97.6547,
        "meta_ra_of_asc_node": 346.0494,
        "meta_arg_of_pericenter": 357.8754,
        "meta_mean_anomaly": 2.2375,
        "meta_ephemeris_type": 0,
        "meta_classification_type": "U",
        "meta_norad_cat_id": 33320,
        "meta_element_set_no": 999,
        "meta_rev_at_epoch": 93246,
        "meta_bstar": 0.00018291,
        "meta_mean_motion_dot": 1.455e-05,
        "meta_mean_motion_ddot": 0,
        "tle_line1": "1 33320U 08041A   25358.23067378  .00001455  00000+0  18291-3 0  9991",
        "tle_line2": "2 33320  97.6547 346.0494 0019302 357.8754   2.2375 14.83428451932468"
      },
      "geometry": {
        "type": "Point",
        "coordinates": [
          159.20383756046195,
          -42.24145071220806
        ]
      }
    },
    {
      "type": "Feature",
      "properties": {
        "norad_id": 33321,
        "name": "HUANJING 1B (HJ-1B)",
        "group": "resource",
        "lat": 58.92757548254456,
        "lon": -22.986381293731608,
        "alt_km": 589.9742265493833,
        "timestamp": "2025-12-24T09:46:30.652084+00:00",
        "meta_object_name": "HUANJING 1B (HJ-1B)",
        "meta_object_id": "2008-041B",
        "meta_epoch": "2025-12-24T04:38:59.751168",
        "meta_mean_motion": 14.82849563,
        "meta_eccentricity": 0.0037797,
        "meta_inclination": 97.6402,
        "meta_ra_of_asc_node": 349.6809,
        "meta_arg_of_pericenter": 39.3955,
        "meta_mean_anomaly": 320.9997,
        "meta_ephemeris_type": 0,
        "meta_classification_type": "U",
        "meta_norad_cat_id": 33321,
        "meta_element_set_no": 999,
        "meta_rev_at_epoch": 93247,
        "meta_bstar": 0.00018216,
        "meta_mean_motion_dot": 1.441e-05,
        "meta_mean_motion_ddot": 0,
        "tle_line1": "1 33321U 08041B   25358.19374712  .00001441  00000+0  18216-3 0  9992",
        "tle_line2": "2 33321  97.6402 349.6809 0037797  39.3955 320.9997 14.82849563932472"
      },
      "geometry": {
        "type": "Point",
        "coordinates": [
          -22.986381293731608,
          58.92757548254456
        ]
      }
    },
    {
      "type": "Feature",
      "properties": {
        "norad_id": 33331,
        "name": "GEOEYE 1",
        "group": "resource",
        "lat": 6.74612081113869,
        "lon": 68.57217181062258,
        "alt_km": 681.4707197450298,
        "timestamp": "2025-12-24T09:46:30.652094+00:00",
        "meta_object_name": "GEOEYE 1",
        "meta_object_id": "2008-042A",
        "meta_epoch": "2025-12-24T03:11:09.784896",
        "meta_mean_motion": 14.64714943,
        "meta_eccentricity": 0.0002956,
        "meta_inclination": 98.1238,
        "meta_ra_of_asc_node": 69.2693,
        "meta_arg_of_pericenter": 235.2987,
        "meta_mean_anomaly": 124.7938,
        "meta_ephemeris_type": 0,
        "meta_classification_type": "U",
        "meta_norad_cat_id": 33331,
        "meta_element_set_no": 999,
        "meta_rev_at_epoch": 92452,
        "meta_bstar": 0.00011704,
        "meta_mean_motion_dot": 5.76e-06,
        "meta_mean_motion_ddot": 0,
        "tle_line1": "1 33331U 08042A   25358.13275214  .00000576  00000+0  11704-3 0  9998",
        "tle_line2": "2 33331  98.1238  69.2693 0002956 235.2987 124.7938 14.64714943924528"
      },
      "geometry": {
        "type": "Point",
        "coordinates": [
          68.57217181062258,
          6.74612081113869
        ]
      }
    },
    {
      "type": "Feature",
      "properties": {
        "norad_id": 33396,
        "name": "THEOS",
        "group": "resource",
        "lat": 27.556080388125892,
        "lon": -119.32705438163258,
        "alt_km": 823.3767050229353,
        "timestamp": "2025-12-24T09:46:30.652105+00:00",
        "meta_object_name": "THEOS",
        "meta_object_id": "2008-049A",
        "meta_epoch": "2025-12-24T03:59:20.104224",
        "meta_mean_motion": 14.20097943,
        "meta_eccentricity": 0.0001201,
        "meta_inclination": 98.5848,
        "meta_ra_of_asc_node": 55.918,
        "meta_arg_of_pericenter": 94.0025,
        "meta_mean_anomaly": 266.1289,
        "meta_ephemeris_type": 0,
        "meta_classification_type": "U",
        "meta_norad_cat_id": 33396,
        "meta_element_set_no": 999,
        "meta_rev_at_epoch": 89312,
        "meta_bstar": -3.1427e-05,
        "meta_mean_motion_dot": -1.1e-06,
        "meta_mean_motion_ddot": 0,
        "tle_line1": "1 33396U 08049A   25358.16620491 -.00000110  00000+0 -31427-4 0  9991",
        "tle_line2": "2 33396  98.5848  55.9180 0001201  94.0025 266.1289 14.20097943893126"
      },
      "geometry": {
        "type": "Point",
        "coordinates": [
          -119.32705438163258,
          27.556080388125892
        ]
      }
    }
  ]
}